[{"OBJECT_NAME":"STARLINK-1624","OBJECT_ID":"2020-057P","EPOCH":"2026-03-10T00:00:02.999808","MEAN_MOTION":15.68159276,"ECCENTRICITY":0.00046049,"INCLINATION":53.0462,"RA_OF_ASC_NODE":230.801,"ARG_OF_PERICENTER":319.1645,"MEAN_ANOMALY":185.2819,"EPHEMERIS_TYPE":0,"CLASSIFICATION_TYPE":"U","NORAD_CAT_ID":46130,"ELEMENT_SET_NO":999,"REV_AT_EPOCH":580,"BSTAR":0.0011533861,"MEAN_MOTION_DOT":0.00132696,"MEAN_MOTION_DDOT":0},{"OBJECT_NAME":"STARLINK-11201 [DTC]","OBJECT_ID":"2024-118A","EPOCH":"2026-03-09T17:15:27.262656","MEAN_MOTION":15.69704356,"ECCENTRICITY":9.659e-5,"INCLINATION":53.1596,"RA_OF_ASC_NODE":221.4315,"ARG_OF_PERICENTER":67.7448,"MEAN_ANOMALY":292.3672,"EPHEMERIS_TYPE":0,"CLASSIFICATION_TYPE":"U","NORAD_CAT_ID":60113,"ELEMENT_SET_NO":999,"REV_AT_EPOCH":9799,"BSTAR":-8.61416e-6,"MEAN_MOTION_DOT":-1.631e-5,"MEAN_MOTION_DDOT":0}]
